IRIDIUM 155             
1 43573U 18061E   21128.91952003  .00000078  00000-0  20692-4 0  9999
2 43573  86.3928 116.2554 0002114  75.8285 284.3145 14.34217308146008
IRIDIUM 154             
1 43574U 18061F   21128.90049545  .00000081  00000-0  21965-4 0  9995
2 43574  86.3932 116.3081 0002520  91.1905 268.9580 14.34216972146053
IRIDIUM 163             
1 43575U 18061G   21128.88146286  .00000076  00000-0  19942-4 0  9999
2 43575  86.3929 116.2881 0002023 101.3851 258.7572 14.34216902146027
IRIDIUM 156             
1 43576U 18061H   21129.06540526  .00000076  00000-0  20126-4 0  9992
2 43576  86.3930 116.2163 0001918  88.4405 271.7010 14.34218300146032
IRIDIUM 164             
1 43577U 18061J   21128.90683657  .00000080  00000-0  21411-4 0  9991
2 43577  86.3931 116.2945 0002388  93.2731 266.8738 14.34218279146060
IRIDIUM 159             
1 43578U 18061K   21128.94489027  .00000076  00000-0  20182-4 0  9990
2 43578  86.3929 116.2546 0002418  90.8939 269.2534 14.34218965146032
IRIDIUM 180             
1 43922U 19002A   21128.87461803  .00000040  00000-0  73289-5 0  9991
2 43922  86.4002  53.1086 0002869 102.4039 257.7478 14.34215536121670
IRIDIUM 176             
1 43923U 19002B   21128.85322146  .00000145  00000-0  19099-4 0  9990
2 43923  86.6137  53.1494 0002555  87.0868 273.0641 14.72248526124803
IRIDIUM 168             
1 43924U 19002C   21129.07759052  .00000069  00000-0  17670-4 0  9994
2 43924  86.4004  53.0484 0002448  88.2363 271.9113 14.34216774121645
IRIDIUM 173             
1 43925U 19002D   21129.06489810  .00000069  00000-0  17725-4 0  9997
2 43925  86.4002  53.0185 0002352  88.7034 271.4431 14.34218917121634
IRIDIUM 169             
1 43926U 19002E   21128.90559022  .00000086  00000-0  21591-4 0  9998
2 43926  86.4214  84.6893 0005716  25.8538 334.2945 14.38603645122059
IRIDIUM 172             
1 43927U 19002F   21129.05856139  .00000071  00000-0  18253-4 0  9990
2 43927  86.4001  53.0232 0002410  90.1860 269.9611 14.34217137121632
IRIDIUM 175             
1 43928U 19002G   21128.84708692  .00000150  00000-0  19939-4 0  9997
2 43928  86.6121  52.9797 0002021  99.1364 261.0082 14.72253660124796
IRIDIUM 171             
1 43929U 19002H   21128.83021940  .00000068  00000-0  17188-4 0  9993
2 43929  86.4010  53.2176 0002488  87.6811 272.4669 14.34215753121594
IRIDIUM 170             
1 43930U 19002J   21128.85937645  .00000153  00000-0  20311-4 0  9992
2 43930  86.6136  53.1531 0002534  92.5208 267.6299 14.72248020124816
IRIDIUM 167             
1 43931U 19002K   21129.03319451  .00000071  00000-0  18128-4 0  9995
2 43931  86.4002  53.0398 0002749  97.7104 262.4404 14.34215083121625
